[{"OBJECT_NAME":"STARLINK-11623 [DTC]","OBJECT_ID":"2025-053M","EPOCH":"2026-03-09T13:11:06.342144","MEAN_MOTION":15.708578,"ECCENTRICITY":9.295e-5,"INCLINATION":42.9998,"RA_OF_ASC_NODE":113.4145,"ARG_OF_PERICENTER":263.0312,"MEAN_ANOMALY":97.045,"EPHEMERIS_TYPE":0,"CLASSIFICATION_TYPE":"U","NORAD_CAT_ID":63276,"ELEMENT_SET_NO":999,"REV_AT_EPOCH":5763,"BSTAR":0.0014074162,"MEAN_MOTION_DOT":0.0018434,"MEAN_MOTION_DDOT":0},{"OBJECT_NAME":"STARLINK-33633","OBJECT_ID":"2025-063V","EPOCH":"2026-03-09T22:00:01.999584","MEAN_MOTION":15.63168458,"ECCENTRICITY":0.00129891,"INCLINATION":53.1539,"RA_OF_ASC_NODE":39.8759,"ARG_OF_PERICENTER":117.785,"MEAN_ANOMALY":338.2735,"EPHEMERIS_TYPE":0,"CLASSIFICATION_TYPE":"U","NORAD_CAT_ID":63382,"ELEMENT_SET_NO":999,"REV_AT_EPOCH":591,"BSTAR":0.0058075952,"MEAN_MOTION_DOT":0.00581659,"MEAN_MOTION_DDOT":0}]
